ONEWEB-0627             
1 55168U 23004AE  23059.58334491 -.00005165  00000+0 -94459-3 0  9992
2 55168  86.6199 264.0395 0016509  60.0082  18.8678 14.66126952  1306
ONEWEB-0627             
1 55168U 23004AE  23059.75001157 -.00045887  00000+0 -84059-2 0  9990
2 55168  86.6199 263.9700 0016460  59.3192 178.6559 14.66138328  7515
ONEWEB-0627             
1 55168U 23004AE  23059.91667824  .00049482  00000+0  89371-2 0  9992
2 55168  86.6199 263.9010 0016527  58.7663 338.3185 14.66090884  1304
ONEWEB-0627             
1 55168U 23004AE  23060.25001157 -.00041325  00000+0 -75661-2 0  9999
2 55168  86.6199 263.7644 0016567  58.0294 297.2356 14.66133754  7596
ONEWEB-0627             
1 55168U 23004AE  23060.91667824  .00052599  00000+0  94963-2 0  9990
2 55168  86.6197 263.4884 0016457  55.7659 215.8990 14.66090230  1308
ONEWEB-0627             
1 55168U 23004AE  23060.91667824  .00052599  00000+0  94963-2 0  9990
2 55168  86.6197 263.4884 0016457  55.7659 215.8990 14.66090230  7685
ONEWEB-0627             
1 55168U 23004AE  23061.83334491 -.00426417  00000+0 -81609-1 0  9991
2 55168  86.6205 263.1104 0016409  52.0441  14.6295 14.66250464  1306
ONEWEB-0627             
1 55168U 23004AE  23062.58334491 -.00015549  00000+0 -28684-2 0  9999
2 55168  86.6215 262.8017 0016353  49.4150  12.5834 14.65669408  1308
ONEWEB-0627             
1 55168U 23004AE  23062.58334491 -.00015549  00000+0 -28684-2 0  9999
2 55168  86.6215 262.8017 0016353  49.4150  12.5834 14.65669408  7933
ONEWEB-0627             
1 55168U 23004AE  23062.98136352 -.00028971  00000+0 -53299-2 0  9992
2 55168  86.6198 262.6366 0015796  49.6504 310.6086 14.65855593  7992
